{"type": "FeatureCollection", "features": [ {"type": "Feature", "properties": {"norad_id": 30814, "name": "FENGYUN 1C DEB", "group": "fengyun-1c-debris", "lat": -42.5163878662802, "lon": 134.15723575159078, "alt_km": 677.3471101910609, "timestamp": "2025-12-12T05:47:29.049740+00:00", "meta": {"OBJECT_NAME": "FENGYUN 1C DEB", "OBJECT_ID": "1999-025AUY", "EPOCH": "2025-12-11T04:41:43.352160", "MEAN_MOTION": 14.6036489, "ECCENTRICITY": 0.00304505, "INCLINATION": 99.0829, "RA_OF_ASC_NODE": 321.4462, "ARG_OF_PERICENTER": 237.7546, "MEAN_ANOMALY": 251.0988, "EPHEMERIS_TYPE": 0, "CLASSIFICATION_TYPE": "U", "NORAD_CAT_ID": 30814, "ELEMENT_SET_NO": 999, "REV_AT_EPOCH": 97719, "BSTAR": 0.0045029165, "MEAN_MOTION_DOT": 0.00021935, "MEAN_MOTION_DDOT": 0}, "tle": {"line1": "1 30814U 99025AUY 25345.19564065  .00021935  00000+0  45029-2 0  9997", "line2": "2 30814  99.0829 321.4462 0030450 237.7546 251.0988 14.60364890977190"}}, "geometry": {"type": "Point", "coordinates": [134.15723575159078, -42.5163878662802]}}, {"type": "Feature", "properties": {"norad_id": 30815, "name": "FENGYUN 1C DEB", "group": "fengyun-1c-debris", "lat": -42.533358496733285, "lon": -46.57120148547346, "alt_km": 655.4092425930721, "timestamp": "2025-12-12T05:47:29.049756+00:00", "meta": {"OBJECT_NAME": "FENGYUN 1C DEB", "OBJECT_ID": "1999-025AUZ", "EPOCH": "2025-12-11T21:20:43.639008", "MEAN_MOTION": 14.7349611, "ECCENTRICITY": 0.00024981, "INCLINATION": 99.3017, "RA_OF_ASC_NODE": 141.6736, "ARG_OF_PERICENTER": 278.1039, "MEAN_ANOMALY": 239.3721, "EPHEMERIS_TYPE": 0, "CLASSIFICATION_TYPE": "U", "NORAD_CAT_ID": 30815, "ELEMENT_SET_NO": 999, "REV_AT_EPOCH": 97767, "BSTAR": 0.0056588518, "MEAN_MOTION_DOT": 0.00036902, "MEAN_MOTION_DDOT": 0}, "tle": {"line1": "1 30815U 99025AUZ 25345.88939397  .00036902  00000+0  56589-2 0  9991", "line2": "2 30815  99.3017 141.6736 0002498 278.1039 239.3721 14.73496110977678"}}, "geometry": {"type": "Point", "coordinates": [-46.57120148547346, -42.533358496733285]}}, {"type": "Feature", "properties": {"norad_id": 30816, "name": "FENGYUN 1C DEB", "group": "fengyun-1c-debris", "lat": -58.96386071159624, "lon": 71.83767711210879, "alt_km": 856.2205530429146, "timestamp": "2025-12-12T05:47:29.049766+00:00", "meta": {"OBJECT_NAME": "FENGYUN 1C DEB", "OBJECT_ID": "1999-025AVA", "EPOCH": "2025-12-10T03:34:05.831904", "MEAN_MOTION": 14.17981524, "ECCENTRICITY": 0.00525921, "INCLINATION": 98.9144, "RA_OF_ASC_NODE": 54.6173, "ARG_OF_PERICENTER": 62.8182, "MEAN_ANOMALY": 1.2145, "EPHEMERIS_TYPE": 0, "CLASSIFICATION_TYPE": "U", "NORAD_CAT_ID": 30816, "ELEMENT_SET_NO": 999, "REV_AT_EPOCH": 96357, "BSTAR": 0.0022290483, "MEAN_MOTION_DOT": 4.583e-05, "MEAN_MOTION_DDOT": 0}, "tle": {"line1": "1 30816U 99025AVA 25344.14867861  .00004583  00000+0  22290-2 0  9998", "line2": "2 30816  98.9144  54.6173 0052592  62.8182   1.2145 14.17981524963576"}}, "geometry": {"type": "Point", "coordinates": [71.83767711210879, -58.96386071159624]}}, {"type": "Feature", "properties": {"norad_id": 30817, "name": "FENGYUN 1C DEB", "group": "fengyun-1c-debris", "lat": 54.45734939509424, "lon": -36.029410770172696, "alt_km": 927.0759786631397, "timestamp": "2025-12-12T05:47:29.049776+00:00", "meta": {"OBJECT_NAME": "FENGYUN 1C DEB", "OBJECT_ID": "1999-025AVB", "EPOCH": "2025-12-11T22:40:04.945152", "MEAN_MOTION": 14.0071979, "ECCENTRICITY": 0.0057375, "INCLINATION": 98.7858, "RA_OF_ASC_NODE": 336.1871, "ARG_OF_PERICENTER": 247.0468, "MEAN_ANOMALY": 112.4637, "EPHEMERIS_TYPE": 0, "CLASSIFICATION_TYPE": "U", "NORAD_CAT_ID": 30817, "ELEMENT_SET_NO": 999, "REV_AT_EPOCH": 95898, "BSTAR": 0.00037473833, "MEAN_MOTION_DOT": 5.24e-06, "MEAN_MOTION_DDOT": 0}, "tle": {"line1": "1 30817U 99025AVB 25345.94450168  .00000524  00000+0  37474-3 0  9998", "line2": "2 30817  98.7858 336.1871 0057375 247.0468 112.4637 14.00719790958984"}}, "geometry": {"type": "Point", "coordinates": [-36.029410770172696, 54.45734939509424]}}, {"type": "Feature", "properties": {"norad_id": 30820, "name": "FENGYUN 1C DEB", "group": "fengyun-1c-debris", "lat": -62.0421362498519, "lon": -114.16807381265512, "alt_km": 805.9560859015392, "timestamp": "2025-12-12T05:47:29.049787+00:00", "meta": {"OBJECT_NAME": "FENGYUN 1C DEB", "OBJECT_ID": "1999-025AVE", "EPOCH": "2025-12-11T05:18:11.395008", "MEAN_MOTION": 14.21379227, "ECCENTRICITY": 0.00520881, "INCLINATION": 98.6753, "RA_OF_ASC_NODE": 81.5471, "ARG_OF_PERICENTER": 191.5743, "MEAN_ANOMALY": 233.0648, "EPHEMERIS_TYPE": 0, "CLASSIFICATION_TYPE": "U", "NORAD_CAT_ID": 30820, "ELEMENT_SET_NO": 999, "REV_AT_EPOCH": 96402, "BSTAR": 0.0030823796, "MEAN_MOTION_DOT": 6.785e-05, "MEAN_MOTION_DDOT": 0}, "tle": {"line1": "1 30820U 99025AVE 25345.22096522  .00006785  00000+0  30824-2 0  9999", "line2": "2 30820  98.6753  81.5471 0052088 191.5743 233.0648 14.21379227964027"}}, "geometry": {"type": "Point", "coordinates": [-114.16807381265512, -62.0421362498519]}}, {"type": "Feature", "properties": {"norad_id": 30821, "name": "FENGYUN 1C DEB", "group": "fengyun-1c-debris", "lat": -61.791453743376195, "lon": -68.6144281199366, "alt_km": 683.8725856906967, "timestamp": "2025-12-12T05:47:29.049797+00:00", "meta": {"OBJECT_NAME": "FENGYUN 1C DEB", "OBJECT_ID": "1999-025AVF", "EPOCH": "2025-12-11T09:05:13.802208", "MEAN_MOTION": 14.4964684, "ECCENTRICITY": 0.00863832, "INCLINATION": 99.103, "RA_OF_ASC_NODE": 127.847, "ARG_OF_PERICENTER": 210.0047, "MEAN_ANOMALY": 213.0337, "EPHEMERIS_TYPE": 0, "CLASSIFICATION_TYPE": "U", "NORAD_CAT_ID": 30821, "ELEMENT_SET_NO": 999, "REV_AT_EPOCH": 98769, "BSTAR": 0.0017050443, "MEAN_MOTION_DOT": 6.825e-05, "MEAN_MOTION_DDOT": 0}, "tle": {"line1": "1 30821U 99025AVF 25345.37863197  .00006825  00000+0  17050-2 0  9997", "line2": "2 30821  99.1030 127.8470 0086383 210.0047 213.0337 14.49646840987693"}}, "geometry": {"type": "Point", "coordinates": [-68.6144281199366, -61.791453743376195]}}, {"type": "Feature", "properties": {"norad_id": 30822, "name": "FENGYUN 1C DEB", "group": "fengyun-1c-debris", "lat": -44.74144956548192, "lon": -174.44598871854217, "alt_km": 835.8810393942449, "timestamp": "2025-12-12T05:47:29.049807+00:00", "meta": {"OBJECT_NAME": "FENGYUN 1C DEB", "OBJECT_ID": "1999-025AVG", "EPOCH": "2025-12-11T14:08:31.091136", "MEAN_MOTION": 14.11339332, "ECCENTRICITY": 0.00731303, "INCLINATION": 98.7354, "RA_OF_ASC_NODE": 13.6838, "ARG_OF_PERICENTER": 288.637, "MEAN_ANOMALY": 226.2715, "EPHEMERIS_TYPE": 0, "CLASSIFICATION_TYPE": "U", "NORAD_CAT_ID": 30822, "ELEMENT_SET_NO": 999, "REV_AT_EPOCH": 96685, "BSTAR": 0.00048515352, "MEAN_MOTION_DOT": 8.56e-06, "MEAN_MOTION_DDOT": 0}, "tle": {"line1": "1 30822U 99025AVG 25345.58924874  .00000856  00000+0  48515-3 0  9990", "line2": "2 30822  98.7354  13.6838 0073130 288.6370 226.2715 14.11339332966859"}}, "geometry": {"type": "Point", "coordinates": [-174.44598871854217, -44.74144956548192]}}, {"type": "Feature", "properties": {"norad_id": 30823, "name": "FENGYUN 1C DEB", "group": "fengyun-1c-debris", "lat": -23.817089968637227, "lon": 131.17450723990513, "alt_km": 922.5092358055144, "timestamp": "2025-12-12T05:47:29.049817+00:00", "meta": {"OBJECT_NAME": "FENGYUN 1C DEB", "OBJECT_ID": "1999-025AVH", "EPOCH": "2025-12-11T14:50:02.182848", "MEAN_MOTION": 14.02554153, "ECCENTRICITY": 0.01341076, "INCLINATION": 98.7627, "RA_OF_ASC_NODE": 126.671, "ARG_OF_PERICENTER": 87.7171, "MEAN_ANOMALY": 344.669, "EPHEMERIS_TYPE": 0, "CLASSIFICATION_TYPE": "U", "NORAD_CAT_ID": 30823, "ELEMENT_SET_NO": 999, "REV_AT_EPOCH": 96018, "BSTAR": 0.00064407733, "MEAN_MOTION_DOT": 1.033e-05, "MEAN_MOTION_DDOT": 0}, "tle": {"line1": "1 30823U 99025AVH 25345.61808082  .00001033  00000+0  64408-3 0  9994", "line2": "2 30823  98.7627 126.6710 0134107  87.7171 344.6690 14.02554153960183"}}, "geometry": {"type": "Point", "coordinates": [131.17450723990513, -23.817089968637227]}}, {"type": "Feature", "properties": {"norad_id": 30826, "name": "FENGYUN 1C DEB", "group": "fengyun-1c-debris", "lat": -42.4888240981342, "lon": -170.58076346401697, "alt_km": 551.9691788973096, "timestamp": "2025-12-12T05:47:29.049828+00:00", "meta": {"OBJECT_NAME": "FENGYUN 1C DEB", "OBJECT_ID": "1999-025AVL", "EPOCH": "2025-12-11T12:17:36.202848", "MEAN_MOTION": 14.82215968, "ECCENTRICITY": 0.01454791, "INCLINATION": 98.8672, "RA_OF_ASC_NODE": 180.3905, "ARG_OF_PERICENTER": 0.7589, "MEAN_ANOMALY": 29.2235, "EPHEMERIS_TYPE": 0, "CLASSIFICATION_TYPE": "U", "NORAD_CAT_ID": 30826, "ELEMENT_SET_NO": 999, "REV_AT_EPOCH": 268, "BSTAR": 0.00088628701, "MEAN_MOTION_DOT": 8.436e-05, "MEAN_MOTION_DDOT": 0}, "tle": {"line1": "1 30826U 99025AVL 25345.51222457  .00008436  00000+0  88629-3 0  9997", "line2": "2 30826  98.8672 180.3905 0145479   0.7589  29.2235 14.82215968  2681"}}, "geometry": {"type": "Point", "coordinates": [-170.58076346401697, -42.4888240981342]}}, {"type": "Feature", "properties": {"norad_id": 30827, "name": "FENGYUN 1C DEB", "group": "fengyun-1c-debris", "lat": -10.348498120154973, "lon": 149.97550515039407, "alt_km": 739.3719799465134, "timestamp": "2025-12-12T05:47:29.049838+00:00", "meta": {"OBJECT_NAME": "FENGYUN 1C DEB", "OBJECT_ID": "1999-025AVM", "EPOCH": "2025-12-11T05:31:34.049280", "MEAN_MOTION": 14.37749293, "ECCENTRICITY": 0.00435959, "INCLINATION": 99.0037, "RA_OF_ASC_NODE": 330.5761, "ARG_OF_PERICENTER": 183.204, "MEAN_ANOMALY": 176.8873, "EPHEMERIS_TYPE": 0, "CLASSIFICATION_TYPE": "U", "NORAD_CAT_ID": 30827, "ELEMENT_SET_NO": 999, "REV_AT_EPOCH": 96527, "BSTAR": 0.0040350501, "MEAN_MOTION_DOT": 0.00012251, "MEAN_MOTION_DDOT": 0}, "tle": {"line1": "1 30827U 99025AVM 25345.23025520  .00012251  00000+0  40351-2 0  9998", "line2": "2 30827  99.0037 330.5761 0043595 183.2040 176.8873 14.37749293965277"}}, "geometry": {"type": "Point", "coordinates": [149.97550515039407, -10.348498120154973]}}]}